{
  "type": "FeatureCollection",
  "features": [
    {
      "type": "Feature",
      "properties": {
        "norad_id": 26766,
        "name": "INTELSAT 10 (IS-10)",
        "group": "intelsat",
        "lat": -4.776759786906475,
        "lon": -85.61032678349308,
        "alt_km": 36092.362215845475,
        "timestamp": "2025-12-14T03:55:52.460546+00:00",
        "meta_object_name": "INTELSAT 10 (IS-10)",
        "meta_object_id": "2001-019A",
        "meta_epoch": "2025-12-12T13:59:22.280064",
        "meta_mean_motion": 0.99078624,
        "meta_eccentricity": 0.00077602,
        "meta_inclination": 8.6297,
        "meta_ra_of_asc_node": 61.1594,
        "meta_arg_of_pericenter": 225.253,
        "meta_mean_anomaly": 144.4037,
        "meta_ephemeris_type": 0,
        "meta_classification_type": "U",
        "meta_norad_cat_id": 26766,
        "meta_element_set_no": 999,
        "meta_rev_at_epoch": 4373,
        "meta_bstar": 0,
        "meta_mean_motion_dot": -2.8e-06,
        "meta_mean_motion_ddot": 0,
        "tle_line1": "1 26766U 01019A   25346.58289676 -.00000280  00000+0  00000+0 0  9998",
        "tle_line2": "2 26766   8.6297  61.1594 0007760 225.2530 144.4037  0.99078624 43731"
      },
      "geometry": {
        "type": "Point",
        "coordinates": [
          -85.61032678349308,
          -4.776759786906475
        ]
      }
    },
    {
      "type": "Feature",
      "properties": {
        "norad_id": 26900,
        "name": "INTELSAT 902 (IS-902)",
        "group": "intelsat",
        "lat": 1.7523167746785144,
        "lon": 91.85802992381205,
        "alt_km": 35804.25043519873,
        "timestamp": "2025-12-14T03:55:52.460570+00:00",
        "meta_object_name": "INTELSAT 902 (IS-902)",
        "meta_object_id": "2001-039A",
        "meta_epoch": "2025-12-11T04:42:42.842016",
        "meta_mean_motion": 1.00272526,
        "meta_eccentricity": 0.00044264,
        "meta_inclination": 5.6424,
        "meta_ra_of_asc_node": 74.0881,
        "meta_arg_of_pericenter": 184.9809,
        "meta_mean_anomaly": 201.6699,
        "meta_ephemeris_type": 0,
        "meta_classification_type": "U",
        "meta_norad_cat_id": 26900,
        "meta_element_set_no": 999,
        "meta_rev_at_epoch": 8881,
        "meta_bstar": 0,
        "meta_mean_motion_dot": -2.78e-06,
        "meta_mean_motion_ddot": 0,
        "tle_line1": "1 26900U 01039A   25345.19632919 -.00000278  00000+0  00000+0 0  9995",
        "tle_line2": "2 26900   5.6424  74.0881 0004426 184.9809 201.6699  1.00272526 88816"
      },
      "geometry": {
        "type": "Point",
        "coordinates": [
          91.85802992381205,
          1.7523167746785144
        ]
      }
    },
    {
      "type": "Feature",
      "properties": {
        "norad_id": 27380,
        "name": "INTELSAT 904 (IS-904)",
        "group": "intelsat",
        "lat": 4.088056193125434,
        "lon": 110.37422173147891,
        "alt_km": 35791.73709150573,
        "timestamp": "2025-12-14T03:55:52.460586+00:00",
        "meta_object_name": "INTELSAT 904 (IS-904)",
        "meta_object_id": "2002-007A",
        "meta_epoch": "2025-12-13T03:01:39.174240",
        "meta_mean_motion": 1.00272668,
        "meta_eccentricity": 0.00015319,
        "meta_inclination": 6.4559,
        "meta_ra_of_asc_node": 71.4281,
        "meta_arg_of_pericenter": 230.0297,
        "meta_mean_anomaly": 154.5144,
        "meta_ephemeris_type": 0,
        "meta_classification_type": "U",
        "meta_norad_cat_id": 27380,
        "meta_element_set_no": 999,
        "meta_rev_at_epoch": 4990,
        "meta_bstar": 0,
        "meta_mean_motion_dot": -2.14e-06,
        "meta_mean_motion_ddot": 0,
        "tle_line1": "1 27380U 02007A   25347.12614785 -.00000214  00000+0  00000+0 0  9990",
        "tle_line2": "2 27380   6.4559  71.4281 0001531 230.0297 154.5144  1.00272668 49905"
      },
      "geometry": {
        "type": "Point",
        "coordinates": [
          110.37422173147891,
          4.088056193125434
        ]
      }
    },
    {
      "type": "Feature",
      "properties": {
        "norad_id": 27426,
        "name": "DIRECTV 5 (TEMPO 1)",
        "group": "intelsat",
        "lat": -3.13483946633845,
        "lon": 32.04687023584128,
        "alt_km": 35793.054975119376,
        "timestamp": "2025-12-14T03:55:52.460599+00:00",
        "meta_object_name": "DIRECTV 5 (TEMPO 1)",
        "meta_object_id": "2002-023A",
        "meta_epoch": "2025-12-13T06:13:41.721024",
        "meta_mean_motion": 1.00272197,
        "meta_eccentricity": 0.00034359,
        "meta_inclination": 4.4037,
        "meta_ra_of_asc_node": 77.6472,
        "meta_arg_of_pericenter": 197.0253,
        "meta_mean_anomaly": 150.8215,
        "meta_ephemeris_type": 0,
        "meta_classification_type": "U",
        "meta_norad_cat_id": 27426,
        "meta_element_set_no": 999,
        "meta_rev_at_epoch": 8625,
        "meta_bstar": 0,
        "meta_mean_motion_dot": -4.4e-07,
        "meta_mean_motion_ddot": 0,
        "tle_line1": "1 27426U 02023A   25347.25951066 -.00000044  00000+0  00000+0 0  9990",
        "tle_line2": "2 27426   4.4037  77.6472 0003435 197.0253 150.8215  1.00272197 86258"
      },
      "geometry": {
        "type": "Point",
        "coordinates": [
          32.04687023584128,
          -3.13483946633845
        ]
      }
    },
    {
      "type": "Feature",
      "properties": {
        "norad_id": 27438,
        "name": "INTELSAT 905 (IS-905)",
        "group": "intelsat",
        "lat": -5.787876912301316,
        "lon": 5.021250484630474,
        "alt_km": 35787.220530826504,
        "timestamp": "2025-12-14T03:55:52.460612+00:00",
        "meta_object_name": "INTELSAT 905 (IS-905)",
        "meta_object_id": "2002-027A",
        "meta_epoch": "2025-12-12T10:15:53.786304",
        "meta_mean_motion": 1.00273335,
        "meta_eccentricity": 0.00027053,
        "meta_inclination": 6.2853,
        "meta_ra_of_asc_node": 72.0601,
        "meta_arg_of_pericenter": 197.9433,
        "meta_mean_anomaly": 188.1472,
        "meta_ephemeris_type": 0,
        "meta_classification_type": "U",
        "meta_norad_cat_id": 27438,
        "meta_element_set_no": 999,
        "meta_rev_at_epoch": 4949,
        "meta_bstar": 0,
        "meta_mean_motion_dot": 1.03e-06,
        "meta_mean_motion_ddot": 0,
        "tle_line1": "1 27438U 02027A   25346.42770586  .00000103  00000+0  00000+0 0  9996",
        "tle_line2": "2 27438   6.2853  72.0601 0002705 197.9433 188.1472  1.00273335 49497"
      },
      "geometry": {
        "type": "Point",
        "coordinates": [
          5.021250484630474,
          -5.787876912301316
        ]
      }
    },
    {
      "type": "Feature",
      "properties": {
        "norad_id": 27445,
        "name": "GALAXY 3C (G-3C)",
        "group": "intelsat",
        "lat": -1.775256501695576,
        "lon": 47.21505209026004,
        "alt_km": 35788.746460959184,
        "timestamp": "2025-12-14T03:55:52.460625+00:00",
        "meta_object_name": "GALAXY 3C (G-3C)",
        "meta_object_id": "2002-030A",
        "meta_epoch": "2025-12-13T04:26:16.067616",
        "meta_mean_motion": 1.00271553,
        "meta_eccentricity": 0.00010934,
        "meta_inclination": 3.2656,
        "meta_ra_of_asc_node": 80.5019,
        "meta_arg_of_pericenter": 87.1263,
        "meta_mean_anomaly": 246.1952,
        "meta_ephemeris_type": 0,
        "meta_classification_type": "U",
        "meta_norad_cat_id": 27445,
        "meta_element_set_no": 999,
        "meta_rev_at_epoch": 4462,
        "meta_bstar": 0,
        "meta_mean_motion_dot": -1.39e-06,
        "meta_mean_motion_ddot": 0,
        "tle_line1": "1 27445U 02030A   25347.18490819 -.00000139  00000+0  00000+0 0  9990",
        "tle_line2": "2 27445   3.2656  80.5019 0001093  87.1263 246.1952  1.00271553 44628"
      },
      "geometry": {
        "type": "Point",
        "coordinates": [
          47.21505209026004,
          -1.775256501695576
        ]
      }
    },
    {
      "type": "Feature",
      "properties": {
        "norad_id": 27513,
        "name": "INTELSAT 906 (IS-906)",
        "group": "intelsat",
        "lat": 4.01454489412757,
        "lon": -153.75966534592797,
        "alt_km": 35773.31799583945,
        "timestamp": "2025-12-14T03:55:52.460637+00:00",
        "meta_object_name": "INTELSAT 906 (IS-906)",
        "meta_object_id": "2002-041A",
        "meta_epoch": "2025-12-13T05:11:41.718048",
        "meta_mean_motion": 1.00271579,
        "meta_eccentricity": 0.00062004,
        "meta_inclination": 5.3302,
        "meta_ra_of_asc_node": 75.2255,
        "meta_arg_of_pericenter": 193.1726,
        "meta_mean_anomaly": 315.8052,
        "meta_ephemeris_type": 0,
        "meta_classification_type": "U",
        "meta_norad_cat_id": 27513,
        "meta_element_set_no": 999,
        "meta_rev_at_epoch": 8516,
        "meta_bstar": 0,
        "meta_mean_motion_dot": 2.5e-07,
        "meta_mean_motion_ddot": 0,
        "tle_line1": "1 27513U 02041A   25347.21645507  .00000025  00000+0  00000+0 0  9991",
        "tle_line2": "2 27513   5.3302  75.2255 0006200 193.1726 315.8052  1.00271579 85162"
      },
      "geometry": {
        "type": "Point",
        "coordinates": [
          -153.75966534592797,
          4.01454489412757
        ]
      }
    }
  ]
}